KUIPER-00167            
1 65780U 25217U   25336.83336806 -.01692027  00000+0 -12113+0 0  9994
2 65780  51.8822 115.8146 0010850 309.2429 327.9819 15.07184944  4627
KUIPER-00168            
1 65781U 25217V   25336.67564642  .00036998  00000+0  96074-3 0  9996
2 65781  51.8708 112.5510 0002051 206.8386 153.2496 15.38608449 10508
KUIPER-00169            
1 65782U 25217W   25336.83671274 -.00110645  00000+0 -30891-2 0  9993
2 65782  51.8710 112.1206 0003550 302.1295  57.9347 15.36531129 10529
KUIPER-00170            
1 65783U 25217X   25336.83336806 -.00530336  00000+0 -21702-1 0  9996
2 65783  51.8720 113.1490 0007946 322.8064 246.0785 15.26129456  5350
KUIPER-00171            
1 65784U 25217Y   25336.85846434  .00276336  00000+0  24024-2 0  9998
2 65784  51.8572 106.3037 0009271 328.7621  31.2826 15.67607118 10609
KUIPER-00172            
1 65785U 25217Z   25336.68882944  .00049577  00000+0  12914-2 0  9996
2 65785  51.8711 112.6376 0003913 295.2754  64.7828 15.38375005 10500
KUIPER-00173            
1 65786U 25217AA  25336.83336806 -.00703770  00000+0 -22100-1 0  9996
2 65786  51.8710 112.0838 0003257 278.2473  81.5447 15.34947338  5550
KUIPER-00174            
1 65787U 25217AB  25336.68380589  .00016825  00000+0  44971-3 0  9995
2 65787  51.8700 112.6019 0003103 245.6593 114.4070 15.38186898 10507
